HORUS 2                 
1 55844U 23032A   26165.49546920  .00005654  00000+0  24054-3 0  9992
2 55844  97.3541 240.9498 0002240 107.8828 252.2653 15.23401300181076
GLOBAL-19               
1 55982U 23041B   26165.43612057  .00011784  00000+0  31464-3 0  9998
2 55982  42.0002 217.9290 0009289 344.1713  15.8835 15.37970862181503
BRO-9                   
1 56185U 23054H   26164.33093152  .00709651  23706-3  12966-2 0  9999
2 56185  97.2935  82.5232 0007327 156.5916 203.5698 16.01367589178472
ION SCV-010             
1 56192U 23054Q   26165.40623106  .00004419  00000+0  17347-3 0  9991
2 56192  97.3788  54.9434 0011888 207.4628 152.5983 15.26176015175775
TELEOS-2                
1 56310U 23057C   26165.42342769  .00000687  00000+0  83114-8 0  9994
2 56310   9.9878 224.3061 0000237 212.4187 147.6012 14.96388092172385
SNIPE 4                 
1 56744U 23072B   26165.48899436  .00020642  00000+0  48140-3 0  9994
2 56744  97.5246  11.4094 0004631 350.0337  10.0817 15.42257040169693
SNIPE 2                 
1 56745U 23072C   26165.53964806  .00025332  00000+0  50713-3 0  9995
2 56745  97.5242  14.4871 0004473  23.4949 336.6504 15.46735918169835
2023-072G               
1 56749U 23072G   26165.54644802  .00028851  00000+0  50737-3 0  9996
2 56749  97.4903  13.2943 0003144  17.7032 342.4329 15.50442369170058
GEISAT PRECURSOR        
1 56934U 23084C   26165.48031083  .00006819  00000+0  20573-3 0  9994
2 56934  97.6217 306.3440 0005203   8.4863 351.6466 15.34618682167111
BLACKJACK ACES-3        
1 56950U 23084U   26165.33651764  .00005272  00000+0  25939-3 0  9993
2 56950  97.6207 300.5054 0002796  44.1996 315.9461 15.18445643166735
BLACKJACK ACES-2        
1 56955U 23084Z   26165.34274491  .00006176  00000+0  30265-3 0  9999
2 56955  97.6202 300.5963 0001126  71.8157 288.3200 15.18513126166743
BLACKJACK ACES-1        
1 56956U 23084AA  26165.33077808  .00007124  00000+0  34797-3 0  9990
2 56956  97.6192 300.3583 0001215 101.0222 259.1149 15.18572920116465
ION SCV-011             
1 56957U 23084AB  26165.51372106  .00004834  00000+0  17559-3 0  9992
2 56957  98.1372 352.5455 0008143  54.0080 306.1912 15.28823306165402
GHOST-3                 
1 56958U 23084AC  26165.38362485  .00016758  00000+0  32435-3 0  9995
2 56958  97.6207 313.8051 0005568 305.8306  54.2426 15.47799344167589
TOMORROW-R2             
1 56962U 23084AG  26165.49194713  .00451668  98318-4  62750-3 0  9999
2 56962  97.6047 329.3341 0008261 243.6738 116.3694 16.05927873168629
AFR-1                   
1 56964U 23084AJ  26165.54832539  .00004145  00000+0  15196-3 0  9994
2 56964  97.6269 302.1754 0010177 356.6052   3.5116 15.28535583166820
METEOR-M2 3             
1 57166U 23091A   26165.49876634  .00000009  00000+0  22648-4 0  9991
2 57166  98.6090 220.5320 0004210 162.1984 197.9343 14.24046581154136
UMKA 1 (RS40S)          
1 57172U 23091G   26165.46205102  .00006214  00000+0  28440-3 0  9990
2 57172  97.5055 224.1695 0014150 126.1520 234.1026 15.20790126163597
2023-091H               
1 57173U 23091H   26165.49907153  .00010488  00000+0  37908-3 0  9996
2 57173  97.5055 228.6690 0011246 121.1642 239.0701 15.28584703163892
2023-091J               
1 57174U 23091J   26165.47846782  .00003710  00000+0  20805-3 0  9993
2 57174  97.5059 218.6134 0014113 151.5622 208.6382 15.13910959163224
CUBEBEL 2 (EU11S)       
1 57175U 23091K   26165.50084080  .00011762  00000+0  41820-3 0  9999
2 57175  97.5058 228.6934 0011262 122.7432 237.4895 15.29092916163897
SITRO-AIS 5 (KATYS)     
1 57176U 23091L   26165.51837655  .00012173  00000+0  42840-3 0  9995
2 57176  97.5066 229.3922 0012775 111.7137 248.5464 15.29403122163937
ZORKIY-2M 1             
1 57177U 23091M   26165.51438647  .00007191  00000+0  32770-3 0  9999
2 57177  97.5096 224.4878 0014705 123.5728 236.6913 15.20872302163599
CUBESX-HSE 3 (RS42S)    
1 57178U 23091N   26165.49445571  .00012475  00000+0  41599-3 0  9991
2 57178  97.5099 231.0473 0012094 102.9657 257.2935 15.31154708164015
MONITOR-3 (RS58S)       
1 57180U 23091Q   26165.51301532  .00010387  00000+0  38432-3 0  9997
2 57180  97.5090 228.9390 0013114 108.9530 251.3132 15.27794971163887
MONITOR-4 (RS57S)       
1 57182U 23091S   26165.42672828  .00009865  00000+0  36425-3 0  9997
2 57182  97.5084 228.8233 0013121 109.5914 250.6743 15.27879131163879
MONITOR-2 (RS39S)       
1 57184U 23091U   26165.47988942  .00004579  00000+0  22243-3 0  9991
2 57184  97.5077 223.7801 0012665 119.2727 240.9775 15.18888523163546
SVYATOBOR 1 (RS60S)     
1 57187U 23091X   26165.50300591  .00008600  00000+0  33097-3 0  9994
2 57187  97.5096 229.3049 0010904 102.4711 257.7748 15.26575227163906
HORS 1                  
1 57188U 23091Y   26165.48873175  .00008747  00000+0  33555-3 0  9996
2 57188  97.5073 229.0533 0010372 102.3325 257.9075 15.26679546163900
VIZARD-METEO (RS38S)    
1 57189U 23091Z   26165.41145403  .00016991  00000+0  48686-3 0  9997
2 57189  97.5099 234.8407 0008426  85.9279 274.2928 15.35947926164263
