OBJECT_NAME,OBJECT_ID,EPOCH,MEAN_MOTION,ECCENTRICITY,INCLINATION,RA_OF_ASC_NODE,ARG_OF_PERICENTER,MEAN_ANOMALY,EPHEMERIS_TYPE,CLASSIFICATION_TYPE,NORAD_CAT_ID,ELEMENT_SET_NO,REV_AT_EPOCH,BSTAR,MEAN_MOTION_DOT,MEAN_MOTION_DDOT
HORUS 2,2023-032A,2026-06-14T11:53:28.538880,15.23401300,.000224,97.3541,240.9498,107.8828,252.2653,0,U,55844,999,18107,.24054E-3,.5654E-4,0
GLOBAL-19,2023-041B,2026-06-14T10:28:00.817248,15.37970862,.0009289,42.0002,217.9290,344.1713,15.8835,0,U,55982,999,18150,.31464E-3,.11784E-3,0
BRO-9,2023-054H,2026-06-13T07:56:32.483328,16.01367589,.00073271,97.2935,82.5232,156.5916,203.5698,0,U,56185,999,17847,.12965876E-2,.709651E-2,.23706133E-3
ION SCV-010,2023-054Q,2026-06-14T09:44:58.363584,15.26176015,.0011888,97.3788,54.9434,207.4628,152.5983,0,U,56192,999,17577,.17347E-3,.4419E-4,0
TELEOS-2,2023-057C,2026-06-14T10:09:44.152416,14.96388092,.0000237,9.9878,224.3061,212.4187,147.6012,0,U,56310,999,17238,.83114E-8,.687E-5,0
SNIPE 4,2023-072B,2026-06-14T11:44:09.112704,15.42257040,.0004631,97.5246,11.4094,350.0337,10.0817,0,U,56744,999,16969,.4814E-3,.20642E-3,0
SNIPE 2,2023-072C,2026-06-14T12:57:05.592384,15.46735918,.0004473,97.5242,14.4871,23.4949,336.6504,0,U,56745,999,16983,.50713E-3,.25332E-3,0
2023-072G,2023-072G,2026-06-14T13:06:53.108928,15.50442369,.0003144,97.4903,13.2943,17.7032,342.4329,0,U,56749,999,17005,.50737E-3,.28851E-3,0
GEISAT PRECURSOR,2023-084C,2026-06-14T11:31:38.855712,15.34618682,.0005203,97.6217,306.3440,8.4863,351.6466,0,U,56934,999,16711,.20573E-3,.6819E-4,0
BLACKJACK ACES-3,2023-084U,2026-06-14T08:04:35.124096,15.18445643,.0002796,97.6207,300.5054,44.1996,315.9461,0,U,56950,999,16673,.25939E-3,.5272E-4,0
BLACKJACK ACES-2,2023-084Z,2026-06-14T08:13:33.160224,15.18513126,.0001126,97.6202,300.5963,71.8157,288.3200,0,U,56955,999,16674,.30265E-3,.6176E-4,0
BLACKJACK ACES-1,2023-084AA,2026-06-14T07:56:19.226112,15.18572920,.0001215,97.6192,300.3583,101.0222,259.1149,0,U,56956,999,11646,.34797E-3,.7124E-4,0
ION SCV-011,2023-084AB,2026-06-14T12:19:45.499584,15.28823306,.0008143,98.1372,352.5455,54.0080,306.1912,0,U,56957,999,16540,.17559E-3,.4834E-4,0
GHOST-3,2023-084AC,2026-06-14T09:12:25.187040,15.47799344,.0005568,97.6207,313.8051,305.8306,54.2426,0,U,56958,999,16758,.32435E-3,.16758E-3,0
TOMORROW-R2,2023-084AG,2026-06-14T11:48:24.232032,16.05927873,.0008261,97.6047,329.3341,243.6738,116.3694,0,U,56962,999,16862,.6275E-3,.451668E-2,.98318E-4
AFR-1,2023-084AJ,2026-06-14T13:09:35.313696,15.28535583,.0010177,97.6269,302.1754,356.6052,3.5116,0,U,56964,999,16682,.15196E-3,.4145E-4,0
METEOR-M2 3,2023-091A,2026-06-14T11:58:13.411776,14.24046581,.000421,98.6090,220.5320,162.1984,197.9343,0,U,57166,999,15413,.22648E-4,.9E-7,0
UMKA 1 (RS40S),2023-091G,2026-06-14T11:05:21.208128,15.20790126,.001415,97.5055,224.1695,126.1520,234.1026,0,U,57172,999,16359,.2844E-3,.6214E-4,0
2023-091H,2023-091H,2026-06-14T11:58:39.780192,15.28584703,.0011246,97.5055,228.6690,121.1642,239.0701,0,U,57173,999,16389,.37908E-3,.10488E-3,0
2023-091J,2023-091J,2026-06-14T11:28:59.619648,15.13910959,.0014113,97.5059,218.6134,151.5622,208.6382,0,U,57174,999,16322,.20805E-3,.371E-4,0
CUBEBEL 2 (EU11S),2023-091K,2026-06-14T12:01:12.645120,15.29092916,.0011262,97.5058,228.6934,122.7432,237.4895,0,U,57175,999,16389,.4182E-3,.11762E-3,0
SITRO-AIS 5 (KATYS),2023-091L,2026-06-14T12:26:27.733920,15.29403122,.0012775,97.5066,229.3922,111.7137,248.5464,0,U,57176,999,16393,.4284E-3,.12173E-3,0
ZORKIY-2M 1,2023-091M,2026-06-14T12:20:42.991008,15.20872302,.0014705,97.5096,224.4878,123.5728,236.6913,0,U,57177,999,16359,.3277E-3,.7191E-4,0
CUBESX-HSE 3 (RS42S),2023-091N,2026-06-14T11:52:00.973344,15.31154708,.0012094,97.5099,231.0473,102.9657,257.2935,0,U,57178,999,16401,.41599E-3,.12475E-3,0
MONITOR-3 (RS58S),2023-091Q,2026-06-14T12:18:44.523648,15.27794971,.0013114,97.5090,228.9390,108.9530,251.3132,0,U,57180,999,16388,.38432E-3,.10387E-3,0
MONITOR-4 (RS57S),2023-091S,2026-06-14T10:14:29.323392,15.27879131,.0013121,97.5084,228.8233,109.5914,250.6743,0,U,57182,999,16387,.36425E-3,.9865E-4,0
MONITOR-2 (RS39S),2023-091U,2026-06-14T11:31:02.445888,15.18888523,.0012665,97.5077,223.7801,119.2727,240.9775,0,U,57184,999,16354,.22243E-3,.4579E-4,0
SVYATOBOR 1 (RS60S),2023-091X,2026-06-14T12:04:19.710624,15.26575227,.0010904,97.5096,229.3049,102.4711,257.7748,0,U,57187,999,16390,.33097E-3,.86E-4,0
HORS 1,2023-091Y,2026-06-14T11:43:46.423200,15.26679546,.0010372,97.5073,229.0533,102.3325,257.9075,0,U,57188,999,16390,.33555E-3,.8747E-4,0
VIZARD-METEO (RS38S),2023-091Z,2026-06-14T09:52:29.628192,15.35947926,.0008426,97.5099,234.8407,85.9279,274.2928,0,U,57189,999,16426,.48686E-3,.16991E-3,0
